O3B FM17                
1 44114U 19020C   26061.97736535 -.00000029  00000+0  00000+0 0  9996
2 44114   0.0396 339.6948 0002693 356.6907  23.5949  5.00115418126211
O3B FM18                
1 44115U 19020D   26061.92365734 -.00000028  00000+0  00000+0 0  9990
2 44115   0.0519   0.0822 0002751 341.0608  18.8396  5.00115232126330
SES-17                  
1 49332U 21095A   26062.13725227 -.00000288  00000+0  00000+0 0  9990
2 49332   0.0247  65.5808 0001037 275.1453 162.4693  1.00269860 16792
SES-22                  
1 52933U 22071A   26062.13108014  .00000089  00000+0  00000+0 0  9993
2 52933   0.0184 233.6766 0001043 100.3289  95.0807  1.00274571  6452
SES-20                  
1 53960U 22123A   26062.15392248 -.00000116  00000+0  00000+0 0  9990
2 53960   0.0142 107.6675 0001354 316.6571  48.8816  1.00270541 12475
SES-21                  
1 53961U 22123B   26062.15947694  .00000054  00000+0  00000+0 0  9992
2 53961   0.0277  64.1006 0000991 277.6436 105.5920  1.00271093  6149
O3B MPOWER F1           
1 54755U 22174A   26058.53300325 -.00000026  00000+0  00000+0 0  9991
2 54755   0.0641 351.4493 0005158   3.4086 238.9684  5.00103025 59873
O3B MPOWER F2           
1 54756U 22174B   26048.35866194 -.00000015  00000+0  00000+0 0  9990
2 54756   0.0642 348.2682 0001560 220.5550 151.1634  5.00731386 59441
SES-18                  
1 55970U 23038A   26062.15392248 -.00000117  00000+0  00000+0 0  9990
2 55970   0.0628 273.3450 0002520  32.9942 166.8767  1.00272158 11049
SES-19                  
1 55971U 23038B   26062.15392248  .00000072  00000+0  00000+0 0  9990
2 55971   0.0559 286.8262 0001760  48.6471 105.9414  1.00271853 11010
O3B MPOWER F4           
1 56367U 23059A   26048.24074746 -.00000015  00000+0  00000+0 0  9995
2 56367   0.0593   7.9241 0006460 334.3658  17.6828  5.00119607 52601
O3B MPOWER F5           
1 58346U 23175A   26061.96660760 -.00000028  00000+0  00000+0 0  9998
2 58346   0.0397   2.3979 0004135 344.1324  13.4515  5.00115735 44128
ASTRA 1P (SES-24)       
1 60086U 24115A   26062.05253104  .00000104  00000+0  00000+0 0  9992
2 60086   0.0589 336.9567 0005173 347.1097 234.8480  1.00270725  6133
O3B MPOWER F7           
1 62362U 24244A   26059.53491027 -.00000028  00000+0  00000+0 0  9997
2 62362   0.0693   5.4961 0006142 333.0934  21.3774  5.00115153 21099
O3B MPOWER F8           
1 62363U 24244B   26062.10047596 -.00000028  00000+0  00000+0 0  9993
2 62363   0.0526 316.7446 0006663  17.0126  26.2018  5.00115765 15559
